OBJECT_NAME,OBJECT_ID,EPOCH,MEAN_MOTION,ECCENTRICITY,INCLINATION,RA_OF_ASC_NODE,ARG_OF_PERICENTER,MEAN_ANOMALY,EPHEMERIS_TYPE,CLASSIFICATION_TYPE,NORAD_CAT_ID,ELEMENT_SET_NO,REV_AT_EPOCH,BSTAR,MEAN_MOTION_DOT,MEAN_MOTION_DDOT
ALOS-2,2014-029A,2026-06-30T20:50:50.445024,14.79474729,.0001598,97.9232,278.8362,87.5110,272.6284,0,U,39766,999,65360,.10488E-3,.732E-5,0
KAZEOSAT 2,2014-033A,2026-07-02T14:06:52.352352,14.85489824,.00069529,97.5394,22.3855,269.8400,90.2019,0,U,40010,999,65124,.13587759E-3,.1123E-4,0
HODOYOSHI-4,2014-033B,2026-07-02T15:12:23.831424,14.88161499,.00220212,97.5450,7.7105,253.9324,105.9469,0,U,40011,999,65110,.8347541E-4,.72E-5,0
DEIMOS-2,2014-033D,2026-07-02T14:09:59.218272,14.93764312,.00008148,97.5804,57.5366,73.1694,286.9615,0,U,40013,999,64002,.13812736E-3,.1409E-4,0
HODOYOSHI-3,2014-033F,2026-07-02T09:49:03.952992,14.85418387,.00315705,97.6433,345.8382,306.0133,53.8157,0,U,40015,999,64988,.1281772E-3,.1061E-4,0
SPOT 7,2014-034A,2026-07-02T14:11:49.404192,14.60972251,.00014321,98.0624,245.6862,96.9368,263.1996,0,U,40053,999,63938,.13596773E-3,.621E-5,0
SKYSAT-B,2014-037D,2026-07-02T10:57:24.273216,14.88066717,.00045864,98.3846,143.2927,217.7450,142.3444,0,U,40072,999,64823,.16840461E-3,.1487E-4,0
WORLDVIEW-3 (WV-3),2014-048A,2026-07-02T14:20:10.173408,14.85047870,.00002813,97.8562,258.2173,168.9543,191.1678,0,U,40115,999,64419,.12778519E-3,.1038E-4,0
GAOFEN-2,2014-049A,2026-07-02T15:34:56.817408,14.80914138,.00072221,98.0105,247.8415,172.2969,187.8355,0,U,40118,999,64152,.50714673E-4,.339E-5,0
YAOGAN-21,2014-053A,2026-07-02T15:11:30.774048,15.26608284,.00092069,97.1462,223.2066,48.1481,312.0543,0,U,40143,999,65731,.38404289E-3,.10004E-3,0
YAOGAN-22,2014-063A,2026-07-02T09:30:05.608800,13.15531213,.00066631,100.7745,334.9229,152.2083,207.9385,0,U,40275,999,56181,-.1185114E-4,-.51E-6,0
ASNARO,2014-070A,2026-07-02T15:13:31.103328,15.19668221,.0006605,97.3447,259.3327,120.6499,239.5388,0,U,40298,999,64635,.49136869E-3,.10428E-3,0
YAOGAN-24,2014-072A,2026-07-02T16:08:16.516896,14.76104802,.00136181,98.1511,321.1413,210.6483,149.3932,0,U,40310,999,62600,.14565697E-3,.953E-5,0
CBERS 4,2014-079A,2026-07-02T15:36:36.795168,14.35513606,.00013326,98.3525,239.9966,51.3899,308.7406,0,U,40336,999,60617,.74769701E-4,.173E-5,0
YAOGAN-26,2014-088A,2026-07-02T15:37:44.187168,15.47969445,.00039107,97.0641,183.5033,31.3846,328.7638,0,U,40362,999,64009,.13726777E-3,.7078E-4,0
SMAP,2015-003A,2026-07-02T14:25:48.635040,14.63380538,.00014809,98.1277,190.4774,97.5277,262.6093,0,U,40376,999,60987,.11099837E-3,.527E-5,0
KOMPSAT-3A,2015-014A,2026-07-02T15:04:31.542240,15.54779535,.00571532,97.6888,176.1276,119.6854,241.0106,0,U,40536,999,62421,.40825828E-3,.29143E-3,0
SENTINEL-2A,2015-028A,2026-07-02T14:23:00.219840,14.30821157,.00012141,98.5686,258.2323,94.0277,266.1045,0,U,40697,999,57593,.22604947E-3,.549E-5,0
GAOFEN-8,2015-030A,2026-07-02T14:52:13.768320,15.46531462,.00097372,97.6892,17.9208,134.6059,225.5986,0,U,40701,999,61383,.58702096E-3,.29185E-3,0
CARBONITE 1 (CBNT-1),2015-032D,2026-07-02T15:03:22.537152,14.83632557,.00130349,97.6508,1.0473,241.8644,118.1254,0,U,40718,999,59163,.16517043E-3,.1314E-4,0
YAOGAN-27,2015-040A,2026-07-02T14:42:28.179360,13.16072148,.00081372,100.1157,169.3265,173.4289,186.6932,0,U,40878,999,51969,.56120197E-3,.171E-5,0
GAOFEN-9 01,2015-047A,2026-07-02T13:58:32.194848,14.82914947,.00289009,97.6268,218.5772,89.7597,270.6929,0,U,40894,999,58247,.15403319E-3,.1207E-4,0
YAOGAN-28,2015-064A,2026-07-02T15:38:24.167040,15.27619965,.0011786,97.3099,321.6010,132.0233,228.2012,0,U,41026,999,59304,.28312063E-3,.7588E-4,0
YAOGAN-29,2015-069A,2026-07-02T15:04:14.162016,14.83097073,.0001732,98.0016,212.2847,29.0205,331.1104,0,U,41038,999,57291,.58582213E-4,.423E-5,0
KENT RIDGE 1,2015-077B,2026-07-02T13:15:07.930368,15.23222620,.00081493,14.9783,151.7072,96.0484,264.0767,0,U,41167,999,58344,.15510902E-3,.4552E-4,0
GAOFEN-4,2015-083A,2026-07-01T14:31:54.862176,1.00268667,.00042432,0.3936,83.8387,111.7154,47.7566,0,U,41194,999,3867,0,-.324E-5,0
JASON-3,2016-002A,2026-07-02T14:44:45.035232,12.87623284,.00083141,66.0417,93.4024,271.9132,88.0934,0,U,41240,999,48923,.11665537E-3,-.33E-6,0
SENTINEL-3A,2016-011A,2026-07-02T13:48:01.242432,14.26737015,.00014271,98.6244,250.7373,94.6328,265.5016,0,U,41335,999,54025,.76746227E-4,.142E-5,0
ZIYUAN 3-02 (ZY 3-02),2016-033A,2026-07-02T15:32:02.406912,15.21327604,.00128701,97.3831,259.1242,230.7394,129.2700,0,U,41556,999,56033,.26043155E-3,.5774E-4,0
CARTOSAT-2C,2016-040A,2026-07-02T09:45:52.812864,15.19310275,.00105368,97.4476,243.1756,85.9757,274.2682,0,U,41599,999,55602,.1640355E-3,.3399E-4,0
