ALOS-2                  
1 39766U 14029A   26181.86863941  .00000732  00000+0  10488-3 0  9995
2 39766  97.9232 278.8362 0001598  87.5110 272.6284 14.79474729653601
KAZEOSAT 2              
1 40010U 14033A   26183.58810593  .00001123  00000+0  13588-3 0  9999
2 40010  97.5394  22.3855 0006952 269.8400  90.2019 14.85489824651242
HODOYOSHI-4             
1 40011U 14033B   26183.63360916  .00000720  00000+0  83475-4 0  9990
2 40011  97.5450   7.7105 0022021 253.9324 105.9469 14.88161499651101
DEIMOS-2                
1 40013U 14033D   26183.59026873  .00001409  00000+0  13813-3 0  9991
2 40013  97.5804  57.5366 0000814  73.1694 286.9615 14.93764312640027
HODOYOSHI-3             
1 40015U 14033F   26183.40907353  .00001061  00000+0  12818-3 0  9992
2 40015  97.6433 345.8382 0031570 306.0133  53.8157 14.85418387649882
SPOT 7                  
1 40053U 14034A   26183.59154403  .00000621  00000+0  13597-3 0  9991
2 40053  98.0624 245.6862 0001432  96.9368 263.1996 14.60972251639389
SKYSAT-B                
1 40072U 14037D   26183.45653094  .00001487  00000+0  16840-3 0  9995
2 40072  98.3846 143.2927 0004586 217.7450 142.3444 14.88066717648233
WORLDVIEW-3 (WV-3)      
1 40115U 14048A   26183.59733997  .00001038  00000+0  12779-3 0  9990
2 40115  97.8562 258.2173 0000281 168.9543 191.1678 14.85047870644196
GAOFEN-2                
1 40118U 14049A   26183.64926872  .00000339  00000+0  50715-4 0  9992
2 40118  98.0105 247.8415 0007222 172.2969 187.8355 14.80914138641523
YAOGAN-21               
1 40143U 14053A   26183.63299507  .00010004  00000+0  38404-3 0  9992
2 40143  97.1462 223.2066 0009206  48.1481 312.0543 15.26608284657319
YAOGAN-22               
1 40275U 14063A   26183.39589825 -.00000051  00000+0 -11851-4 0  9998
2 40275 100.7745 334.9229 0006663 152.2083 207.9385 13.15531213561818
ASNARO                  
1 40298U 14070A   26183.63438777  .00010428  00000+0  49137-3 0  9991
2 40298  97.3447 259.3327 0006605 120.6499 239.5388 15.19668221646351
YAOGAN-24               
1 40310U 14072A   26183.67241339  .00000953  00000+0  14566-3 0  9998
2 40310  98.1511 321.1413 0013618 210.6483 149.3932 14.76104802626001
CBERS 4                 
1 40336U 14079A   26183.65042587  .00000173  00000+0  74770-4 0  9993
2 40336  98.3525 239.9966 0001332  51.3899 308.7406 14.35513606606170
YAOGAN-26               
1 40362U 14088A   26183.65120587  .00007078  00000+0  13727-3 0  9994
2 40362  97.0641 183.5033 0003910  31.3846 328.7638 15.47969445640095
SMAP                    
1 40376U 15003A   26183.60125735  .00000527  00000+0  11100-3 0  9997
2 40376  98.1277 190.4774 0001480  97.5277 262.6093 14.63380538609877
KOMPSAT-3A              
1 40536U 15014A   26183.62814285  .00029143  00000+0  40826-3 0  9996
2 40536  97.6888 176.1276 0057153 119.6854 241.0106 15.54779535624211
SENTINEL-2A             
1 40697U 15028A   26183.59930810  .00000549  00000+0  22605-3 0  9992
2 40697  98.5686 258.2323 0001214  94.0277 266.1045 14.30821157575937
GAOFEN-8                
1 40701U 15030A   26183.61960380  .00029185  00000+0  58702-3 0  9993
2 40701  97.6892  17.9208 0009737 134.6059 225.5986 15.46531462613831
CARBONITE 1 (CBNT-1)    
1 40718U 15032D   26183.62734418  .00001314  00000+0  16517-3 0  9997
2 40718  97.6508   1.0473 0013034 241.8644 118.1254 14.83632557591632
YAOGAN-27               
1 40878U 15040A   26183.61282615  .00000171  00000+0  56120-3 0  9993
2 40878 100.1157 169.3265 0008137 173.4289 186.6932 13.16072148519697
GAOFEN-9 01             
1 40894U 15047A   26183.58231707  .00001207  00000+0  15403-3 0  9990
2 40894  97.6268 218.5772 0028900  89.7597 270.6929 14.82914947582471
YAOGAN-28               
1 41026U 15064A   26183.65166860  .00007588  00000+0  28312-3 0  9993
2 41026  97.3099 321.6010 0011786 132.0233 228.2012 15.27619965593041
YAOGAN-29               
1 41038U 15069A   26183.62794169  .00000423  00000+0  58582-4 0  9991
2 41038  98.0016 212.2847 0001732  29.0205 331.1104 14.83097073572918
KENT RIDGE 1            
1 41167U 15077B   26183.55217512  .00004552  00000+0  15511-3 0  9998
2 41167  14.9783 151.7072 0008149  96.0484 264.0767 15.23222620583440
GAOFEN-4                
1 41194U 15083A   26182.60549609 -.00000324  00000+0  00000+0 0  9992
2 41194   0.3936  83.8387 0004243 111.7154  47.7566  1.00268667 38677
JASON-3                 
1 41240U 16002A   26183.61441013 -.00000033  00000+0  11666-3 0  9999
2 41240  66.0417  93.4024 0008314 271.9132  88.0934 12.87623284489231
SENTINEL-3A             
1 41335U 16011A   26183.57501438  .00000142  00000+0  76746-4 0  9998
2 41335  98.6244 250.7373 0001427  94.6328 265.5016 14.26737015540251
ZIYUAN 3-02 (ZY 3-02)   
1 41556U 16033A   26183.64725008  .00005774  00000+0  26043-3 0  9996
2 41556  97.3831 259.1242 0012870 230.7394 129.2700 15.21327604560334
CARTOSAT-2C             
1 41599U 16040A   26183.40686126  .00003399  00000+0  16404-3 0  9993
2 41599  97.4476 243.1756 0010536  85.9757 274.2682 15.19310275556024
